{
  "type": "FeatureCollection",
  "features": [
    {
      "type": "Feature",
      "properties": {
        "norad_id": 37292,
        "name": "COSMOS 2251 DEB",
        "group": "cosmos-2251-debris",
        "lat": -33.440010085065,
        "lon": 28.768019290473173,
        "alt_km": 848.4559049899444,
        "timestamp": "2025-12-18T14:52:08.422286+00:00",
        "meta_object_name": "COSMOS 2251 DEB",
        "meta_object_id": "1993-036BJG",
        "meta_epoch": "2025-12-02T14:04:30.366912",
        "meta_mean_motion": 14.03226454,
        "meta_eccentricity": 0.02102512,
        "meta_inclination": 74.129,
        "meta_ra_of_asc_node": 67.3453,
        "meta_arg_of_pericenter": 73.1105,
        "meta_mean_anomaly": 289.2966,
        "meta_ephemeris_type": 0,
        "meta_classification_type": "U",
        "meta_norad_cat_id": 37292,
        "meta_element_set_no": 999,
        "meta_rev_at_epoch": 59706,
        "meta_bstar": 0.0022453288,
        "meta_mean_motion_dot": 4.236e-05,
        "meta_mean_motion_ddot": 0,
        "tle_line1": "1 37292U 93036BJG 25336.58646258  .00004236  00000+0  22453-2 0  9999",
        "tle_line2": "2 37292  74.1290  67.3453 0210251  73.1105 289.2966 14.03226454597064"
      },
      "geometry": {
        "type": "Point",
        "coordinates": [
          28.768019290473173,
          -33.440010085065
        ]
      }
    },
    {
      "type": "Feature",
      "properties": {
        "norad_id": 37295,
        "name": "COSMOS 2251 DEB",
        "group": "cosmos-2251-debris",
        "lat": 63.10404710250638,
        "lon": 55.85755860230166,
        "alt_km": 641.4043159143494,
        "timestamp": "2025-12-18T14:52:08.422297+00:00",
        "meta_object_name": "COSMOS 2251 DEB",
        "meta_object_id": "1993-036BJK",
        "meta_epoch": "2025-12-17T18:42:01.411200",
        "meta_mean_motion": 14.6526833,
        "meta_eccentricity": 0.00439101,
        "meta_inclination": 74.007,
        "meta_ra_of_asc_node": 271.9083,
        "meta_arg_of_pericenter": 89.546,
        "meta_mean_anomaly": 271.074,
        "meta_ephemeris_type": 0,
        "meta_classification_type": "U",
        "meta_norad_cat_id": 37295,
        "meta_element_set_no": 999,
        "meta_rev_at_epoch": 82378,
        "meta_bstar": 0.00042758939,
        "meta_mean_motion_dot": 2.307e-05,
        "meta_mean_motion_ddot": 0,
        "tle_line1": "1 37295U 93036BJK 25351.77918300  .00002307  00000+0  42759-3 0  9999",
        "tle_line2": "2 37295  74.0070 271.9083 0043910  89.5460 271.0740 14.65268330823782"
      },
      "geometry": {
        "type": "Point",
        "coordinates": [
          55.85755860230166,
          63.10404710250638
        ]
      }
    },
    {
      "type": "Feature",
      "properties": {
        "norad_id": 37305,
        "name": "COSMOS 2251 DEB",
        "group": "cosmos-2251-debris",
        "lat": -1.3959709561655695,
        "lon": -80.7914601279103,
        "alt_km": 791.590586601088,
        "timestamp": "2025-12-18T14:52:08.422307+00:00",
        "meta_object_name": "COSMOS 2251 DEB",
        "meta_object_id": "1993-036BJV",
        "meta_epoch": "2025-12-13T12:50:04.816608",
        "meta_mean_motion": 14.36140847,
        "meta_eccentricity": 0.00500253,
        "meta_inclination": 73.8697,
        "meta_ra_of_asc_node": 289.0409,
        "meta_arg_of_pericenter": 249.3262,
        "meta_mean_anomaly": 110.2523,
        "meta_ephemeris_type": 0,
        "meta_classification_type": "U",
        "meta_norad_cat_id": 37305,
        "meta_element_set_no": 999,
        "meta_rev_at_epoch": 66878,
        "meta_bstar": 0.00092453159,
        "meta_mean_motion_dot": 2.706e-05,
        "meta_mean_motion_ddot": 0,
        "tle_line1": "1 37305U 93036BJV 25347.53477797  .00002706  00000+0  92453-3 0  9999",
        "tle_line2": "2 37305  73.8697 289.0409 0050025 249.3262 110.2523 14.36140847668789"
      },
      "geometry": {
        "type": "Point",
        "coordinates": [
          -80.7914601279103,
          -1.3959709561655695
        ]
      }
    },
    {
      "type": "Feature",
      "properties": {
        "norad_id": 37312,
        "name": "COSMOS 2251 DEB",
        "group": "cosmos-2251-debris",
        "lat": -65.7811247175999,
        "lon": 52.74531119954304,
        "alt_km": 735.7148098984098,
        "timestamp": "2025-12-18T14:52:08.422317+00:00",
        "meta_object_name": "COSMOS 2251 DEB",
        "meta_object_id": "1993-036BKC",
        "meta_epoch": "2025-12-15T07:40:32.314080",
        "meta_mean_motion": 14.46134941,
        "meta_eccentricity": 0.00183905,
        "meta_inclination": 74.0308,
        "meta_ra_of_asc_node": 199.364,
        "meta_arg_of_pericenter": 302.4306,
        "meta_mean_anomaly": 57.5073,
        "meta_ephemeris_type": 0,
        "meta_classification_type": "U",
        "meta_norad_cat_id": 37312,
        "meta_element_set_no": 999,
        "meta_rev_at_epoch": 86201,
        "meta_bstar": 0.00037323494,
        "meta_mean_motion_dot": 1.309e-05,
        "meta_mean_motion_ddot": 0,
        "tle_line1": "1 37312U 93036BKC 25349.31981845  .00001309  00000+0  37323-3 0  9992",
        "tle_line2": "2 37312  74.0308 199.3640 0018390 302.4306  57.5073 14.46134941862012"
      },
      "geometry": {
        "type": "Point",
        "coordinates": [
          52.74531119954304,
          -65.7811247175999
        ]
      }
    },
    {
      "type": "Feature",
      "properties": {
        "norad_id": 37316,
        "name": "COSMOS 2251 DEB",
        "group": "cosmos-2251-debris",
        "lat": 33.716644859926106,
        "lon": 20.2335003935743,
        "alt_km": 565.0508013631561,
        "timestamp": "2025-12-18T14:52:08.422327+00:00",
        "meta_object_name": "COSMOS 2251 DEB",
        "meta_object_id": "1993-036BKG",
        "meta_epoch": "2025-12-17T08:11:29.901120",
        "meta_mean_motion": 14.9468312,
        "meta_eccentricity": 0.00293349,
        "meta_inclination": 74.0196,
        "meta_ra_of_asc_node": 11.7863,
        "meta_arg_of_pericenter": 78.0104,
        "meta_mean_anomaly": 282.4365,
        "meta_ephemeris_type": 0,
        "meta_classification_type": "U",
        "meta_norad_cat_id": 37316,
        "meta_element_set_no": 999,
        "meta_rev_at_epoch": 86212,
        "meta_bstar": 0.0015745613,
        "meta_mean_motion_dot": 0.00017232,
        "meta_mean_motion_ddot": 0,
        "tle_line1": "1 37316U 93036BKG 25351.34131830  .00017232  00000+0  15746-2 0  9999",
        "tle_line2": "2 37316  74.0196  11.7863 0029334  78.0104 282.4365 14.94683120862123"
      },
      "geometry": {
        "type": "Point",
        "coordinates": [
          20.2335003935743,
          33.716644859926106
        ]
      }
    },
    {
      "type": "Feature",
      "properties": {
        "norad_id": 37320,
        "name": "COSMOS 2251 DEB",
        "group": "cosmos-2251-debris",
        "lat": -14.933370190321916,
        "lon": 30.986071341850327,
        "alt_km": 641.148614138473,
        "timestamp": "2025-12-18T14:52:08.422337+00:00",
        "meta_object_name": "COSMOS 2251 DEB",
        "meta_object_id": "1993-036BKL",
        "meta_epoch": "2025-12-17T07:08:08.438496",
        "meta_mean_motion": 14.78834519,
        "meta_eccentricity": 0.00469449,
        "meta_inclination": 74.0452,
        "meta_ra_of_asc_node": 209.2073,
        "meta_arg_of_pericenter": 295.2696,
        "meta_mean_anomaly": 64.3618,
        "meta_ephemeris_type": 0,
        "meta_classification_type": "U",
        "meta_norad_cat_id": 37320,
        "meta_element_set_no": 999,
        "meta_rev_at_epoch": 66214,
        "meta_bstar": 0.00060761772,
        "meta_mean_motion_dot": 4.522e-05,
        "meta_mean_motion_ddot": 0,
        "tle_line1": "1 37320U 93036BKL 25351.29731989  .00004522  00000+0  60762-3 0  9996",
        "tle_line2": "2 37320  74.0452 209.2073 0046944 295.2696  64.3618 14.78834519662145"
      },
      "geometry": {
        "type": "Point",
        "coordinates": [
          30.986071341850327,
          -14.933370190321916
        ]
      }
    },
    {
      "type": "Feature",
      "properties": {
        "norad_id": 37326,
        "name": "COSMOS 2251 DEB",
        "group": "cosmos-2251-debris",
        "lat": 35.53848519591731,
        "lon": -24.757417314287608,
        "alt_km": 662.0504000889459,
        "timestamp": "2025-12-18T14:52:08.422347+00:00",
        "meta_object_name": "COSMOS 2251 DEB",
        "meta_object_id": "1993-036BKS",
        "meta_epoch": "2025-12-18T04:50:37.332672",
        "meta_mean_motion": 14.61602447,
        "meta_eccentricity": 0.00547462,
        "meta_inclination": 74.0256,
        "meta_ra_of_asc_node": 324.235,
        "meta_arg_of_pericenter": 91.6183,
        "meta_mean_anomaly": 269.1256,
        "meta_ephemeris_type": 0,
        "meta_classification_type": "U",
        "meta_norad_cat_id": 37326,
        "meta_element_set_no": 999,
        "meta_rev_at_epoch": 85563,
        "meta_bstar": 0.00042834692,
        "meta_mean_motion_dot": 2.144e-05,
        "meta_mean_motion_ddot": 0,
        "tle_line1": "1 37326U 93036BKS 25352.20182098  .00002144  00000+0  42835-3 0  9994",
        "tle_line2": "2 37326  74.0256 324.2350 0054746  91.6183 269.1256 14.61602447855633"
      },
      "geometry": {
        "type": "Point",
        "coordinates": [
          -24.757417314287608,
          35.53848519591731
        ]
      }
    }
  ]
}